{
  "type": "FeatureCollection",
  "features": [
    {
      "type": "Feature",
      "properties": {
        "norad_id": 30250,
        "name": "FENGYUN 1C DEB",
        "group": "fengyun-1c-debris",
        "lat": -34.87103574622981,
        "lon": 142.84971671110458,
        "alt_km": 854.2004605427437,
        "timestamp": "2025-12-02T15:49:07.464621+00:00",
        "meta_object_name": "FENGYUN 1C DEB",
        "meta_object_id": "1999-025XK",
        "meta_epoch": "2025-12-01T23:39:49.110048",
        "meta_mean_motion": 14.01603473,
        "meta_eccentricity": 0.00687314,
        "meta_inclination": 98.7529,
        "meta_ra_of_asc_node": 328.3671,
        "meta_arg_of_pericenter": 253.7253,
        "meta_mean_anomaly": 167.4057,
        "meta_ephemeris_type": 0,
        "meta_classification_type": "U",
        "meta_norad_cat_id": 30250,
        "meta_element_set_no": 999,
        "meta_rev_at_epoch": 96341,
        "meta_bstar": 0.00058125984,
        "meta_mean_motion_dot": 8.56e-06,
        "meta_mean_motion_ddot": 0,
        "tle_line1": "1 30250U 99025XK  25335.98598507  .00000856  00000+0  58126-3 0  9997",
        "tle_line2": "2 30250  98.7529 328.3671 0068731 253.7253 167.4057 14.01603473963416"
      },
      "geometry": {
        "type": "Point",
        "coordinates": [
          142.84971671110458,
          -34.87103574622981
        ]
      }
    },
    {
      "type": "Feature",
      "properties": {
        "norad_id": 30251,
        "name": "FENGYUN 1C DEB",
        "group": "fengyun-1c-debris",
        "lat": -2.301197786914561,
        "lon": 174.96027339929822,
        "alt_km": 760.0089083261573,
        "timestamp": "2025-12-02T15:49:07.464631+00:00",
        "meta_object_name": "FENGYUN 1C DEB",
        "meta_object_id": "1999-025XL",
        "meta_epoch": "2025-12-02T01:24:54.639072",
        "meta_mean_motion": 14.29261717,
        "meta_eccentricity": 0.00521519,
        "meta_inclination": 99.0495,
        "meta_ra_of_asc_node": 173.9705,
        "meta_arg_of_pericenter": 1.149,
        "meta_mean_anomaly": 150.4228,
        "meta_ephemeris_type": 0,
        "meta_classification_type": "U",
        "meta_norad_cat_id": 30251,
        "meta_element_set_no": 999,
        "meta_rev_at_epoch": 97989,
        "meta_bstar": 0.00055403823,
        "meta_mean_motion_dot": 1.382e-05,
        "meta_mean_motion_ddot": 0,
        "tle_line1": "1 30251U 99025XL  25336.05896573  .00001382  00000+0  55404-3 0  9992",
        "tle_line2": "2 30251  99.0495 173.9705 0052151   1.1490 150.4228 14.29261717979894"
      },
      "geometry": {
        "type": "Point",
        "coordinates": [
          174.96027339929822,
          -2.301197786914561
        ]
      }
    },
    {
      "type": "Feature",
      "properties": {
        "norad_id": 30252,
        "name": "FENGYUN 1C DEB",
        "group": "fengyun-1c-debris",
        "lat": -32.058507864864026,
        "lon": 166.45411619603104,
        "alt_km": 841.1181149638132,
        "timestamp": "2025-12-02T15:49:07.464642+00:00",
        "meta_object_name": "FENGYUN 1C DEB",
        "meta_object_id": "1999-025XM",
        "meta_epoch": "2025-12-01T23:46:45.308352",
        "meta_mean_motion": 14.09681534,
        "meta_eccentricity": 0.00657535,
        "meta_inclination": 98.7441,
        "meta_ra_of_asc_node": 351.3363,
        "meta_arg_of_pericenter": 272.4052,
        "meta_mean_anomaly": 150.9144,
        "meta_ephemeris_type": 0,
        "meta_classification_type": "U",
        "meta_norad_cat_id": 30252,
        "meta_element_set_no": 999,
        "meta_rev_at_epoch": 96814,
        "meta_bstar": 0.0005867076,
        "meta_mean_motion_dot": 1.006e-05,
        "meta_mean_motion_ddot": 0,
        "tle_line1": "1 30252U 99025XM  25335.99080218  .00001006  00000+0  58671-3 0  9998",
        "tle_line2": "2 30252  98.7441 351.3363 0065753 272.4052 150.9144 14.09681534968142"
      },
      "geometry": {
        "type": "Point",
        "coordinates": [
          166.45411619603104,
          -32.058507864864026
        ]
      }
    },
    {
      "type": "Feature",
      "properties": {
        "norad_id": 30253,
        "name": "FENGYUN 1C DEB",
        "group": "fengyun-1c-debris",
        "lat": -68.71696052784704,
        "lon": -137.72336810232022,
        "alt_km": 1159.2945978779917,
        "timestamp": "2025-12-02T15:49:07.464652+00:00",
        "meta_object_name": "FENGYUN 1C DEB",
        "meta_object_id": "1999-025XN",
        "meta_epoch": "2025-12-02T04:24:09.908928",
        "meta_mean_motion": 13.73122094,
        "meta_eccentricity": 0.02223471,
        "meta_inclination": 98.7529,
        "meta_ra_of_asc_node": 65.1378,
        "meta_arg_of_pericenter": 69.46,
        "meta_mean_anomaly": 351.0608,
        "meta_ephemeris_type": 0,
        "meta_classification_type": "U",
        "meta_norad_cat_id": 30253,
        "meta_element_set_no": 999,
        "meta_rev_at_epoch": 93869,
        "meta_bstar": 0.0021181713,
        "meta_mean_motion_dot": 2.303e-05,
        "meta_mean_motion_ddot": 0,
        "tle_line1": "1 30253U 99025XN  25336.18344802  .00002303  00000+0  21182-2 0  9990",
        "tle_line2": "2 30253  98.7529  65.1378 0222347  69.4600 351.0608 13.73122094938690"
      },
      "geometry": {
        "type": "Point",
        "coordinates": [
          -137.72336810232022,
          -68.71696052784704
        ]
      }
    },
    {
      "type": "Feature",
      "properties": {
        "norad_id": 30257,
        "name": "FENGYUN 1C DEB",
        "group": "fengyun-1c-debris",
        "lat": -32.23815568401627,
        "lon": 149.93244253763936,
        "alt_km": 862.5330313220884,
        "timestamp": "2025-12-02T15:49:07.464663+00:00",
        "meta_object_name": "FENGYUN 1C DEB",
        "meta_object_id": "1999-025XS",
        "meta_epoch": "2025-12-02T06:21:21.140928",
        "meta_mean_motion": 14.09715633,
        "meta_eccentricity": 0.00594837,
        "meta_inclination": 98.7495,
        "meta_ra_of_asc_node": 335.1228,
        "meta_arg_of_pericenter": 128.4495,
        "meta_mean_anomaly": 243.555,
        "meta_ephemeris_type": 0,
        "meta_classification_type": "U",
        "meta_norad_cat_id": 30257,
        "meta_element_set_no": 999,
        "meta_rev_at_epoch": 97070,
        "meta_bstar": 0.00014600503,
        "meta_mean_motion_dot": 2.18e-06,
        "meta_mean_motion_ddot": 0,
        "tle_line1": "1 30257U 99025XS  25336.26482802  .00000218  00000+0  14601-3 0  9998",
        "tle_line2": "2 30257  98.7495 335.1228 0059483 128.4495 243.5550 14.09715633970703"
      },
      "geometry": {
        "type": "Point",
        "coordinates": [
          149.93244253763936,
          -32.23815568401627
        ]
      }
    },
    {
      "type": "Feature",
      "properties": {
        "norad_id": 30259,
        "name": "FENGYUN 1C DEB",
        "group": "fengyun-1c-debris",
        "lat": -2.700286489777623,
        "lon": 7.519255615225294,
        "alt_km": 797.4219252550711,
        "timestamp": "2025-12-02T15:49:07.464674+00:00",
        "meta_object_name": "FENGYUN 1C DEB",
        "meta_object_id": "1999-025XU",
        "meta_epoch": "2025-12-02T03:55:31.724832",
        "meta_mean_motion": 14.51414156,
        "meta_eccentricity": 0.02424723,
        "meta_inclination": 98.7627,
        "meta_ra_of_asc_node": 187.4192,
        "meta_arg_of_pericenter": 300.4892,
        "meta_mean_anomaly": 176.8247,
        "meta_ephemeris_type": 0,
        "meta_classification_type": "U",
        "meta_norad_cat_id": 30259,
        "meta_element_set_no": 999,
        "meta_rev_at_epoch": 99321,
        "meta_bstar": 0.00056366577,
        "meta_mean_motion_dot": 3.235e-05,
        "meta_mean_motion_ddot": 0,
        "tle_line1": "1 30259U 99025XU  25336.16356163  .00003235  00000+0  56367-3 0  9996",
        "tle_line2": "2 30259  98.7627 187.4192 0242472 300.4892 176.8247 14.51414156993210"
      },
      "geometry": {
        "type": "Point",
        "coordinates": [
          7.519255615225294,
          -2.700286489777623
        ]
      }
    },
    {
      "type": "Feature",
      "properties": {
        "norad_id": 30261,
        "name": "FENGYUN 1C DEB",
        "group": "fengyun-1c-debris",
        "lat": -21.845659550692332,
        "lon": -165.73761499831502,
        "alt_km": 244.16547253800036,
        "timestamp": "2025-12-02T15:49:07.464685+00:00",
        "meta_object_name": "FENGYUN 1C DEB",
        "meta_object_id": "1999-025XW",
        "meta_epoch": "2025-12-02T01:34:32.102976",
        "meta_mean_motion": 16.11001551,
        "meta_eccentricity": 0.00117461,
        "meta_inclination": 98.734,
        "meta_ra_of_asc_node": 17.0089,
        "meta_arg_of_pericenter": 306.6584,
        "meta_mean_anomaly": 53.3615,
        "meta_ephemeris_type": 0,
        "meta_classification_type": "U",
        "meta_norad_cat_id": 30261,
        "meta_element_set_no": 999,
        "meta_rev_at_epoch": 2201,
        "meta_bstar": 0.0018921149,
        "meta_mean_motion_dot": 0.01809526,
        "meta_mean_motion_ddot": 0.0027185254,
        "tle_line1": "1 30261U 99025XW  25336.06564934  .01809526  27185-2  18921-2 0  9992",
        "tle_line2": "2 30261  98.7340  17.0089 0011746 306.6584  53.3615 16.11001551 22010"
      },
      "geometry": {
        "type": "Point",
        "coordinates": [
          -165.73761499831502,
          -21.845659550692332
        ]
      }
    }
  ]
}